GLOBALSTAR M023         
1 25621U 99004A   25314.76424684 -.00000060  00000+0  24326-3 0  9990
2 25621  52.0118 327.1088 0010357  90.5490  80.0614 12.62507918234242
GLOBALSTAR M040         
1 25622U 99004B   25314.79639811 -.00000084  00000+0  11123-3 0  9991
2 25622  51.9930 331.3818 0000886   9.6141 161.0252 12.62022063233768
GLOBALSTAR M036         
1 25623U 99004C   25314.46995170  .00000026  00000+0  15906-2 0  9996
2 25623  51.9952 214.7463 0010722 334.6591 196.7867 11.86615498196347
GLOBALSTAR M038         
1 25624U 99004D   25314.46262395 -.00000058  00000+0  30947-3 0  9992
2 25624  52.0002  10.3116 0001606   9.5823   3.8345 12.32535345220417
GLOBALSTAR M022         
1 25649U 99012A   25314.22133155 -.00000056  00000+0  37450-3 0  9997
2 25649  52.0044 253.9119 0003103  91.6565  50.3167 12.02506067193949
GLOBALSTAR M041         
1 25650U 99012B   25314.89087027 -.00000077  00000+0  10554-3 0  9997
2 25650  51.9984 138.0149 0000531 206.3943 153.6866 11.96680621195840
GLOBALSTAR M046         
1 25651U 99012C   25314.40659343 -.00000107  00000+0 -20009-3 0  9992
2 25651  52.0040 198.2059 0001776 157.2731  14.0616 12.09414699201357
GLOBALSTAR M037         
1 25652U 99012D   25314.40117579 -.00000067  00000+0  20543-3 0  9990
2 25652  51.9991  98.7758 0002771 136.1977 251.0772 12.62454425229744
